{"fetched_at": "2026-06-01T19:30:58.902823+00:00", "line1": "1 67403U 25315C   26151.72970852 -.00000058  00000+0  00000+0 0  9993", "line2": "2 67403   3.3556  95.5017 0003037  19.1643 110.6046  1.00273323  1525"}
{"fetched_at": "2026-06-02T12:53:48.755378+00:00", "line1": "1 67403U 25315C   26152.94171619 -.00000057  00000+0  00000+0 0  9991", "line2": "2 67403   3.3586  95.4720 0003516  16.6458 190.6486  1.00270907  1538"}
{"fetched_at": "2026-06-03T15:44:13.717610+00:00", "line1": "1 67403U 25315C   26153.98457009 -.00000057  00000+0  00000+0 0  9996", "line2": "2 67403   3.3608  95.4490 0003535  18.5517 205.2154  1.00270309  1547"}
{"fetched_at": "2026-06-04T17:16:33.392806+00:00", "line1": "1 67403U 25315C   26154.93796664 -.00000057  00000+0  00000+0 0  9995", "line2": "2 67403   3.3629  95.4272 0003556  19.6409 188.3056  1.00270286  1550"}
